CCSDS_OMM_VERS = 2.0
CREATION_DATE  = 
ORIGINATOR     = 

OBJECT_NAME    = CZ-2C R/B
OBJECT_ID      = 2022-132E
CENTER_NAME    = EARTH
REF_FRAME      = TEME
TIME_SYSTEM    = UTC
MEAN_ELEMENT_THEORY = SGP/SGP4

EPOCH          = 2026-01-25T12:29:21.708960
MEAN_MOTION    = 15.58056601
ECCENTRICITY   = .0016648
INCLINATION    = 97.2956
RA_OF_ASC_NODE = 27.6604
ARG_OF_PERICENTER = 247.9791
MEAN_ANOMALY   = 111.9697

EPHEMERIS_TYPE = 0
CLASSIFICATION_TYPE = U
NORAD_CAT_ID   = 54039
ELEMENT_SET_NO = 999
REV_AT_EPOCH   = 18364
BSTAR          = .58587E-3
MEAN_MOTION_DOT = .44318E-3
MEAN_MOTION_DDOT = 0

CCSDS_OMM_VERS = 2.0
CREATION_DATE  = 
ORIGINATOR     = 

OBJECT_NAME    = GSLV R/B
OBJECT_ID      = 2022-138AN
CENTER_NAME    = EARTH
REF_FRAME      = TEME
TIME_SYSTEM    = UTC
MEAN_ELEMENT_THEORY = SGP/SGP4

EPOCH          = 2026-01-25T11:02:51.458784
MEAN_MOTION    = 14.96424515
ECCENTRICITY   = .0019906
INCLINATION    = 87.3846
RA_OF_ASC_NODE = 180.8297
ARG_OF_PERICENTER = 312.9946
MEAN_ANOMALY   = 46.9616

EPHEMERIS_TYPE = 0
CLASSIFICATION_TYPE = U
NORAD_CAT_ID   = 54149
ELEMENT_SET_NO = 999
REV_AT_EPOCH   = 17746
BSTAR          = .40271E-3
MEAN_MOTION_DOT = .4609E-4
MEAN_MOTION_DDOT = 0

CCSDS_OMM_VERS = 2.0
CREATION_DATE  = 
ORIGINATOR     = 

OBJECT_NAME    = XRISM
OBJECT_ID      = 2023-137A
CENTER_NAME    = EARTH
REF_FRAME      = TEME
TIME_SYSTEM    = UTC
MEAN_ELEMENT_THEORY = SGP/SGP4

EPOCH          = 2026-01-25T12:14:56.113152
MEAN_MOTION    = 15.10919361
ECCENTRICITY   = .0008056
INCLINATION    = 31.0009
RA_OF_ASC_NODE = 202.8262
ARG_OF_PERICENTER = 326.3642
MEAN_ANOMALY   = 33.6484

EPHEMERIS_TYPE = 0
CLASSIFICATION_TYPE = U
NORAD_CAT_ID   = 57800
ELEMENT_SET_NO = 999
REV_AT_EPOCH   = 13125
BSTAR          = .49762E-3
MEAN_MOTION_DOT = .8603E-4
MEAN_MOTION_DDOT = 0

CCSDS_OMM_VERS = 2.0
CREATION_DATE  = 
ORIGINATOR     = 

OBJECT_NAME    = ACS3
OBJECT_ID      = 2024-077B
CENTER_NAME    = EARTH
REF_FRAME      = TEME
TIME_SYSTEM    = UTC
MEAN_ELEMENT_THEORY = SGP/SGP4

EPOCH          = 2026-01-25T11:34:53.508000
MEAN_MOTION    = 13.87726163
ECCENTRICITY   = .00497
INCLINATION    = 97.2326
RA_OF_ASC_NODE = 336.3037
ARG_OF_PERICENTER = 219.7314
MEAN_ANOMALY   = 140.0204

EPHEMERIS_TYPE = 0
CLASSIFICATION_TYPE = U
NORAD_CAT_ID   = 59588
ELEMENT_SET_NO = 999
REV_AT_EPOCH   = 8820
BSTAR          = .19605E-1
MEAN_MOTION_DOT = .235E-3
MEAN_MOTION_DDOT = 0

CCSDS_OMM_VERS = 2.0
CREATION_DATE  = 
ORIGINATOR     = 

OBJECT_NAME    = SZ-21 MODULE
OBJECT_ID      = 2025-246C
CENTER_NAME    = EARTH
REF_FRAME      = TEME
TIME_SYSTEM    = UTC
MEAN_ELEMENT_THEORY = SGP/SGP4

EPOCH          = 2026-01-25T11:27:18.117792
MEAN_MOTION    = 15.65281551
ECCENTRICITY   = .0003263
INCLINATION    = 41.4752
RA_OF_ASC_NODE = 108.7073
ARG_OF_PERICENTER = 236.7636
MEAN_ANOMALY   = 123.2892

EPHEMERIS_TYPE = 0
CLASSIFICATION_TYPE = U
NORAD_CAT_ID   = 66515
ELEMENT_SET_NO = 999
REV_AT_EPOCH   = 1129
BSTAR          = .4018E-3
MEAN_MOTION_DOT = .40953E-3
MEAN_MOTION_DDOT = 0

