CZ-2C R/B               
1 54039U 22132E   26025.52039015  .00044318  00000+0  58587-3 0  9996
2 54039  97.2956  27.6604 0016648 247.9791 111.9697 15.58056601183643
GSLV R/B                
1 54149U 22138AN  26025.46031781  .00004609  00000+0  40271-3 0  9999
2 54149  87.3846 180.8297 0019906 312.9946  46.9616 14.96424515177463
XRISM                   
1 57800U 23137A   26025.51037168  .00008603  00000+0  49762-3 0  9999
2 57800  31.0009 202.8262 0008056 326.3642  33.6484 15.10919361131258
ACS3                    
1 59588U 24077B   26025.48256375  .00023500  00000+0  19605-1 0  9991
2 59588  97.2326 336.3037 0049700 219.7314 140.0204 13.87726163 88201
SZ-21 MODULE            
1 66515U 25246C   26025.47729303  .00040953  00000+0  40180-3 0  9998
2 66515  41.4752 108.7073 0003263 236.7636 123.2892 15.65281551 11290
